start=new Date('2021-08-30T00:00:00.000Z').valueOf();
sats=[{"DECAY_DATE":null,"BSTAR":"0.00009951100000","FILE":"3105271","MEAN_MOTION_DDOT":"0.0000000000000","APOAPSIS":"548.819","RCS_SIZE":"LARGE","INCLINATION":"53.0550","ARG_OF_PERICENTER":"79.4458","ELEMENT_SET_NO":"999","RA_OF_ASC_NODE":"81.5055","OBJECT_ID":"2021-017BE","MEAN_MOTION":"15.06406146","COUNTRY_CODE":"US","PERIOD":"95.592","SITE":"AFETR","TLE_LINE1":"1 47774U 21017BE  21241.84728669  .00001201  00000-0  99511-4 0  9993","EPHEMERIS_TYPE":"0","MEAN_ANOMALY":"280.6795","MEAN_MOTION_DOT":"0.00001201","OBJECT_NAME":"STARLINK-2197","EPOCH":"2021-08-29T20:20:05.570016","TLE_LINE2":"2 47774  53.0550  81.5055 0002346  79.4458 280.6795 15.06406146 28476","GP_ID":"183700374","REV_AT_EPOCH":"2847","MEAN_ELEMENT_THEORY":"SGP4","LAUNCH_DATE":"2021-03-04","SEMIMAJOR_AXIS":"6925.330","REF_FRAME":"TEME","PERIAPSIS":"545.570","NORAD_CAT_ID":"47774","TIME_SYSTEM":"UTC","OBJECT_TYPE":"PAYLOAD","CLASSIFICATION_TYPE":"U","CENTER_NAME":"EARTH","ECCENTRICITY":"0.00023460"},{"MEAN_MOTION_DDOT":"0.0000000000000","FILE":"3105271","BSTAR":"0.00002518200000","DECAY_DATE":null,"ARG_OF_PERICENTER":"88.3260","INCLINATION":"53.0557","RCS_SIZE":"LARGE","APOAPSIS":"548.797","RA_OF_ASC_NODE":"81.4727","OBJECT_ID":"2021-017BF","ELEMENT_SET_NO":"999","SITE":"AFETR","PERIOD":"95.593","COUNTRY_CODE":"US","MEAN_MOTION":"15.06390966","MEAN_ANOMALY":"271.7986","MEAN_MOTION_DOT":"0.00000093","EPHEMERIS_TYPE":"0","TLE_LINE1":"1 47775U 21017BF  21241.85835610  .00000093  00000-0  25182-4 0  9991","TLE_LINE2":"2 47775  53.0557  81.4727 0002247  88.3260 271.7986 15.06390966 28520","GP_ID":"183700625","EPOCH":"2021-08-29T20:36:01.967040","OBJECT_NAME":"STARLINK-2198","NORAD_CAT_ID":"47775","TIME_SYSTEM":"UTC","PERIAPSIS":"545.685","REF_FRAME":"TEME","SEMIMAJOR_AXIS":"6925.376","LAUNCH_DATE":"2021-03-04","REV_AT_EPOCH":"2852","MEAN_ELEMENT_THEORY":"SGP4","ECCENTRICITY":"0.00022470","CENTER_NAME":"EARTH","CLASSIFICATION_TYPE":"U","OBJECT_TYPE":"PAYLOAD"},{"CENTER_NAME":"EARTH","CLASSIFICATION_TYPE":"U","OBJECT_TYPE":"PAYLOAD","ECCENTRICITY":"0.00021090","SEMIMAJOR_AXIS":"6925.356","LAUNCH_DATE":"2021-03-04","REV_AT_EPOCH":"2862","MEAN_ELEMENT_THEORY":"SGP4","NORAD_CAT_ID":"47776","TIME_SYSTEM":"UTC","PERIAPSIS":"545.760","REF_FRAME":"TEME","OBJECT_NAME":"STARLINK-2209","TLE_LINE2":"2 47776  53.0563  71.6402 0002109  77.9341 282.1885 15.06397714 28623","GP_ID":"183701376","EPOCH":"2021-08-29T19:38:57.787296","TLE_LINE1":"1 47776U 21017BG  21241.81872439  .00001579  00000-0  12487-3 0  9991","MEAN_MOTION_DOT":"0.00001579","MEAN_ANOMALY":"282.1885","EPHEMERIS_TYPE":"0","PERIOD":"95.592","MEAN_MOTION":"15.06397714","COUNTRY_CODE":"US","SITE":"AFETR","OBJECT_ID":"2021-017BG","RA_OF_ASC_NODE":"71.6402","ELEMENT_SET_NO":"999","INCLINATION":"53.0563","RCS_SIZE":"LARGE","APOAPSIS":"548.681","ARG_OF_PERICENTER":"77.9341","FILE":"3105271","BSTAR":"0.00012487000000","DECAY_DATE":null,"MEAN_MOTION_DDOT":"0.0000000000000"},{"CENTER_NAME":"EARTH","CLASSIFICATION_TYPE":"U","OBJECT_TYPE":"PAYLOAD","ECCENTRICITY":"0.00022060","SEMIMAJOR_AXIS":"6925.349","LAUNCH_DATE":"2021-03-04","REV_AT_EPOCH":"2863","MEAN_ELEMENT_THEORY":"SGP4","NORAD_CAT_ID":"47777","TIME_SYSTEM":"UTC","PERIAPSIS":"545.686","REF_FRAME":"TEME","OBJECT_NAME":"STARLINK-2210","TLE_LINE2":"2 47777  53.0566  71.3290 0002206  86.4810 273.6431 15.06399783 28634","EPOCH":"2021-08-29T21:19:49.476576","GP_ID":"183700124","TLE_LINE1":"1 47777U 21017BH  21241.88876709 -.00000560  00000-0 -18663-4 0  9997","MEAN_MOTION_DOT":"-0.00000560","MEAN_ANOMALY":"273.6431","EPHEMERIS_TYPE":"0","PERIOD":"95.592","COUNTRY_CODE":"US","MEAN_MOTION":"15.06399783","SITE":"AFETR","RA_OF_ASC_NODE":"71.3290","OBJECT_ID":"2021-017BH","ELEMENT_SET_NO":"999","INCLINATION":"53.0566","RCS_SIZE":"LARGE","APOAPSIS":"548.742","ARG_OF_PERICENTER":"86.4810","FILE":"3105271","BSTAR":"-0.00001866300000","DECAY_DATE":null,"MEAN_MOTION_DDOT":"0.0000000000000"},{"ARG_OF_PERICENTER":"106.6976","APOAPSIS":"549.647","RCS_SIZE":"LARGE","INCLINATION":"53.0563","MEAN_MOTION_DDOT":"0.0000000000000","BSTAR":"0.00340160000000","DECAY_DATE":null,"FILE":"3105271","SITE":"AFETR","COUNTRY_CODE":"US","MEAN_MOTION":"15.05992462","PERIOD":"95.618","ELEMENT_SET_NO":"999","RA_OF_ASC_NODE":"71.6419","OBJECT_ID":"2021-017BJ","GP_ID":"183699874","TLE_LINE2":"2 47778  53.0563  71.6419 0001710 106.6976 253.4201 15.05992462 28627","EPOCH":"2021-08-29T20:31:47.038656","OBJECT_NAME":"STARLINK-2211","EPHEMERIS_TYPE":"0","MEAN_ANOMALY":"253.4201","MEAN_MOTION_DOT":"0.00050191","TLE_LINE1":"1 47778U 21017BJ  21241.85540554  .00050191  00000-0  34016-2 0  9992","ECCENTRICITY":"0.00017100","OBJECT_TYPE":"PAYLOAD","CENTER_NAME":"EARTH","CLASSIFICATION_TYPE":"U","REF_FRAME":"TEME","NORAD_CAT_ID":"47778","TIME_SYSTEM":"UTC","PERIAPSIS":"547.278","REV_AT_EPOCH":"2862","MEAN_ELEMENT_THEORY":"SGP4","SEMIMAJOR_AXIS":"6926.598","LAUNCH_DATE":"2021-03-04"},{"ELEMENT_SET_NO":"999","RA_OF_ASC_NODE":"71.6993","OBJECT_ID":"2021-017BK","COUNTRY_CODE":"US","MEAN_MOTION":"15.06401862","PERIOD":"95.592","SITE":"AFETR","DECAY_DATE":null,"BSTAR":"-0.00002639300000","FILE":"3105271","MEAN_MOTION_DDOT":"0.0000000000000","RCS_SIZE":"LARGE","APOAPSIS":"548.529","INCLINATION":"53.0555","ARG_OF_PERICENTER":"79.0139","MEAN_ELEMENT_THEORY":"SGP4","REV_AT_EPOCH":"2862","LAUNCH_DATE":"2021-03-04","SEMIMAJOR_AXIS":"6925.343","REF_FRAME":"TEME","PERIAPSIS":"545.886","NORAD_CAT_ID":"47779","TIME_SYSTEM":"UTC","OBJECT_TYPE":"PAYLOAD","CLASSIFICATION_TYPE":"U","CENTER_NAME":"EARTH","ECCENTRICITY":"0.00019080","TLE_LINE1":"1 47779U 21017BK  21241.80398007 -.00000675  00000-0 -26393-4 0  9997","EPHEMERIS_TYPE":"0","MEAN_ANOMALY":"281.1065","MEAN_MOTION_DOT":"-0.00000675","OBJECT_NAME":"STARLINK-2212","TLE_LINE2":"2 47779  53.0555  71.6993 0001908  79.0139 281.1065 15.06401862 28625","EPOCH":"2021-08-29T19:17:43.878048","GP_ID":"183701126"},{"RA_OF_ASC_NODE":"71.3944","OBJECT_ID":"2021-017BL","ELEMENT_SET_NO":"999","SITE":"AFETR","PERIOD":"95.592","COUNTRY_CODE":"US","MEAN_MOTION":"15.06403987","MEAN_MOTION_DDOT":"0.0000000000000","FILE":"3105271","BSTAR":"0.00000238260000","DECAY_DATE":null,"ARG_OF_PERICENTER":"90.2584","INCLINATION":"53.0559","RCS_SIZE":"LARGE","APOAPSIS":"548.669","NORAD_CAT_ID":"47780","TIME_SYSTEM":"UTC","PERIAPSIS":"545.734","REF_FRAME":"TEME","SEMIMAJOR_AXIS":"6925.336","LAUNCH_DATE":"2021-03-04","REV_AT_EPOCH":"2866","MEAN_ELEMENT_THEORY":"SGP4","ECCENTRICITY":"0.00021190","CENTER_NAME":"EARTH","CLASSIFICATION_TYPE":"U","OBJECT_TYPE":"PAYLOAD","MEAN_MOTION_DOT":"-0.00000246","MEAN_ANOMALY":"269.8648","EPHEMERIS_TYPE":"0","TLE_LINE1":"1 47780U 21017BL  21241.87306239 -.00000246  00000-0  23826-5 0  9994","EPOCH":"2021-08-29T20:57:12.590496","TLE_LINE2":"2 47780  53.0559  71.3944 0002119  90.2584 269.8648 15.06403987 28662","GP_ID":"183700876","OBJECT_NAME":"STARLINK-2213"},{"TLE_LINE1":"1 47781U 21017BM  21241.84821545 -.00000436  00000-0 -10351-4 0  9994","MEAN_MOTION_DOT":"-0.00000436","MEAN_ANOMALY":"265.8538","EPHEMERIS_TYPE":"0","OBJECT_NAME":"STARLINK-2223","TLE_LINE2":"2 47781  53.0560  71.5072 0001867  94.2664 265.8538 15.06404568 28616","GP_ID":"183699624","EPOCH":"2021-08-29T20:21:25.814880","LAUNCH_DATE":"2021-03-04","SEMIMAJOR_AXIS":"6925.335","REV_AT_EPOCH":"2861","MEAN_ELEMENT_THEORY":"SGP4","PERIAPSIS":"545.907","NORAD_CAT_ID":"47781","TIME_SYSTEM":"UTC","REF_FRAME":"TEME","CLASSIFICATION_TYPE":"U","CENTER_NAME":"EARTH","OBJECT_TYPE":"PAYLOAD","ECCENTRICITY":"0.00018670","FILE":"3105271","DECAY_DATE":null,"BSTAR":"-0.00001035100000","MEAN_MOTION_DDOT":"0.0000000000000","INCLINATION":"53.0560","APOAPSIS":"548.493","RCS_SIZE":"LARGE","ARG_OF_PERICENTER":"94.2664","OBJECT_ID":"2021-017BM","RA_OF_ASC_NODE":"71.5072","ELEMENT_SET_NO":"999","PERIOD":"95.592","MEAN_MOTION":"15.06404568","COUNTRY_CODE":"US","SITE":"AFETR"},{"OBJECT_NAME":"STARLINK-2257","GP_ID":"183700375","TLE_LINE2":"2 47787  53.0550 111.1302 0002058  63.6953 296.4247 15.06400950 27484","EPOCH":"2021-08-29T22:23:30.386976","TLE_LINE1":"1 47787U 21018A   21241.93299059 -.00001211  00000-0 -62388-4 0  9999","EPHEMERIS_TYPE":"0","MEAN_ANOMALY":"296.4247","MEAN_MOTION_DOT":"-0.00001211","OBJECT_TYPE":"PAYLOAD","CLASSIFICATION_TYPE":"U","CENTER_NAME":"EARTH","ECCENTRICITY":"0.00020580","MEAN_ELEMENT_THEORY":"SGP4","REV_AT_EPOCH":"2748","LAUNCH_DATE":"2021-03-11","SEMIMAJOR_AXIS":"6925.346","REF_FRAME":"TEME","PERIAPSIS":"545.785","NORAD_CAT_ID":"47787","TIME_SYSTEM":"UTC","APOAPSIS":"548.636","RCS_SIZE":"LARGE","INCLINATION":"53.0550","ARG_OF_PERICENTER":"63.6953","DECAY_DATE":null,"BSTAR":"-0.00006238800000","FILE":"3105271","MEAN_MOTION_DDOT":"0.0000000000000","MEAN_MOTION":"15.06400950","COUNTRY_CODE":"US","PERIOD":"95.592","SITE":"AFETR","ELEMENT_SET_NO":"999","OBJECT_ID":"2021-018A","RA_OF_ASC_NODE":"111.1302"},{"EPHEMERIS_TYPE":"0","MEAN_ANOMALY":"293.7631","MEAN_MOTION_DOT":"-0.00004998","TLE_LINE1":"1 47788U 21018B   21241.90796901 -.00004998  00000-0 -16957-3 0  9990","GP_ID":"183700626","TLE_LINE2":"2 47788  53.0560  91.9413 0001452  66.3520 293.7631 15.27701472 27765","EPOCH":"2021-08-29T21:47:28.522464","OBJECT_NAME":"STARLINK-2314","REF_FRAME":"TEME","PERIAPSIS":"481.691","NORAD_CAT_ID":"47788","TIME_SYSTEM":"UTC","REV_AT_EPOCH":"2776","MEAN_ELEMENT_THEORY":"SGP4","LAUNCH_DATE":"2021-03-11","SEMIMAJOR_AXIS":"6860.822","ECCENTRICITY":"0.00014520","OBJECT_TYPE":"PAYLOAD","CLASSIFICATION_TYPE":"U","CENTER_NAME":"EARTH","MEAN_MOTION_DDOT":"0.0000000000000","DECAY_DATE":null,"BSTAR":"-0.00016957000000","FILE":"3105271","ARG_OF_PERICENTER":"66.3520","APOAPSIS":"483.684","RCS_SIZE":"LARGE","INCLINATION":"53.0560","ELEMENT_SET_NO":"999","OBJECT_ID":"2021-018B","RA_OF_ASC_NODE":"91.9413","SITE":"AFETR","COUNTRY_CODE":"US","MEAN_MOTION":"15.27701472","PERIOD":"94.259"}];
